{"type": "FeatureCollection", "features": [ {"type": "Feature", "properties": {"norad_id": 31092, "name": "FENGYUN 1C DEB", "group": "fengyun-1c-debris", "lat": -71.52425488001809, "lon": -115.31499744238792, "alt_km": 1125.1794973628184, "timestamp": "2025-12-05T11:32:56.299119+00:00", "meta": {"OBJECT_NAME": "FENGYUN 1C DEB", "OBJECT_ID": "1999-025BGN", "EPOCH": "2025-11-15T07:00:52.552224", "MEAN_MOTION": 13.46401433, "ECCENTRICITY": 0.03278725, "INCLINATION": 99.7115, "RA_OF_ASC_NODE": 75.9227, "ARG_OF_PERICENTER": 204.4209, "MEAN_ANOMALY": 154.1084, "EPHEMERIS_TYPE": 0, "CLASSIFICATION_TYPE": "U", "NORAD_CAT_ID": 31092, "ELEMENT_SET_NO": 999, "REV_AT_EPOCH": 91512, "BSTAR": 0.0042000132, "MEAN_MOTION_DOT": 3.457e-05, "MEAN_MOTION_DDOT": 0}, "tle": {"line1": "1 31092U 99025BGN 25319.29227491  .00003457  00000+0  42000-2 0  9992", "line2": "2 31092  99.7115  75.9227 0327872 204.4209 154.1084 13.46401433915121"}}, "geometry": {"type": "Point", "coordinates": [-115.31499744238792, -71.52425488001809]}}, {"type": "Feature", "properties": {"norad_id": 31093, "name": "FENGYUN 1C DEB", "group": "fengyun-1c-debris", "lat": -54.42625868480858, "lon": -13.080543471428433, "alt_km": 817.1500660605398, "timestamp": "2025-12-05T11:32:56.299130+00:00", "meta": {"OBJECT_NAME": "FENGYUN 1C DEB", "OBJECT_ID": "1999-025BGP", "EPOCH": "2025-12-03T20:08:09.658752", "MEAN_MOTION": 13.80616728, "ECCENTRICITY": 0.0208171, "INCLINATION": 98.5951, "RA_OF_ASC_NODE": 177.6322, "ARG_OF_PERICENTER": 247.3765, "MEAN_ANOMALY": 110.5253, "EPHEMERIS_TYPE": 0, "CLASSIFICATION_TYPE": "U", "NORAD_CAT_ID": 31093, "ELEMENT_SET_NO": 999, "REV_AT_EPOCH": 94384, "BSTAR": 0.00062625528, "MEAN_MOTION_DOT": 7.34e-06, "MEAN_MOTION_DDOT": 0}, "tle": {"line1": "1 31093U 99025BGP 25337.83900068  .00000734  00000+0  62626-3 0  9993", "line2": "2 31093  98.5951 177.6322 0208171 247.3765 110.5253 13.80616728943843"}}, "geometry": {"type": "Point", "coordinates": [-13.080543471428433, -54.42625868480858]}}, {"type": "Feature", "properties": {"norad_id": 31094, "name": "FENGYUN 1C DEB", "group": "fengyun-1c-debris", "lat": 16.854049549940832, "lon": 30.24802191567726, "alt_km": 894.3756876408779, "timestamp": "2025-12-05T11:32:56.299140+00:00", "meta": {"OBJECT_NAME": "FENGYUN 1C DEB", "OBJECT_ID": "1999-025BGQ", "EPOCH": "2025-12-04T14:13:57.061056", "MEAN_MOTION": 14.01990538, "ECCENTRICITY": 0.0106414, "INCLINATION": 98.8568, "RA_OF_ASC_NODE": 206.6778, "ARG_OF_PERICENTER": 69.4772, "MEAN_ANOMALY": 291.7776, "EPHEMERIS_TYPE": 0, "CLASSIFICATION_TYPE": "U", "NORAD_CAT_ID": 31094, "ELEMENT_SET_NO": 999, "REV_AT_EPOCH": 95505, "BSTAR": 0.0026418, "MEAN_MOTION_DOT": 4.192e-05, "MEAN_MOTION_DDOT": 0}, "tle": {"line1": "1 31094U 99025BGQ 25338.59302154  .00004192  00000+0  26418-2 0  9990", "line2": "2 31094  98.8568 206.6778 0106414  69.4772 291.7776 14.01990538955053"}}, "geometry": {"type": "Point", "coordinates": [30.24802191567726, 16.854049549940832]}}, {"type": "Feature", "properties": {"norad_id": 31095, "name": "FENGYUN 1C DEB", "group": "fengyun-1c-debris", "lat": -43.480430207368016, "lon": -64.84297925398005, "alt_km": 873.452498747497, "timestamp": "2025-12-05T11:32:56.299150+00:00", "meta": {"OBJECT_NAME": "FENGYUN 1C DEB", "OBJECT_ID": "1999-025BGR", "EPOCH": "2025-12-03T05:06:12.521952", "MEAN_MOTION": 13.06661132, "ECCENTRICITY": 0.0499779, "INCLINATION": 98.5614, "RA_OF_ASC_NODE": 121.5529, "ARG_OF_PERICENTER": 214.6633, "MEAN_ANOMALY": 142.0948, "EPHEMERIS_TYPE": 0, "CLASSIFICATION_TYPE": "U", "NORAD_CAT_ID": 31095, "ELEMENT_SET_NO": 999, "REV_AT_EPOCH": 89323, "BSTAR": 0.00017519, "MEAN_MOTION_DOT": 7.3e-07, "MEAN_MOTION_DDOT": 0}, "tle": {"line1": "1 31095U 99025BGR 25337.21264493  .00000073  00000+0  17519-3 0  9999", "line2": "2 31095  98.5614 121.5529 0499779 214.6633 142.0948 13.06661132893230"}}, "geometry": {"type": "Point", "coordinates": [-64.84297925398005, -43.480430207368016]}}, {"type": "Feature", "properties": {"norad_id": 31097, "name": "FENGYUN 1C DEB", "group": "fengyun-1c-debris", "lat": 65.23463659393397, "lon": -58.31374217323712, "alt_km": 740.2247974093389, "timestamp": "2025-12-05T11:32:56.299160+00:00", "meta": {"OBJECT_NAME": "FENGYUN 1C DEB", "OBJECT_ID": "1999-025BGT", "EPOCH": "2025-12-04T14:03:11.455200", "MEAN_MOTION": 14.46732949, "ECCENTRICITY": 0.0014656, "INCLINATION": 98.8601, "RA_OF_ASC_NODE": 100.9877, "ARG_OF_PERICENTER": 294.417, "MEAN_ANOMALY": 196.5748, "EPHEMERIS_TYPE": 0, "CLASSIFICATION_TYPE": "U", "NORAD_CAT_ID": 31097, "ELEMENT_SET_NO": 999, "REV_AT_EPOCH": 96920, "BSTAR": 0.0067438, "MEAN_MOTION_DOT": 0.00024464, "MEAN_MOTION_DDOT": 0}, "tle": {"line1": "1 31097U 99025BGT 25338.58554925  .00024464  00000+0  67438-2 0  9998", "line2": "2 31097  98.8601 100.9877 0014656 294.4170 196.5748 14.46732949969200"}}, "geometry": {"type": "Point", "coordinates": [-58.31374217323712, 65.23463659393397]}}, {"type": "Feature", "properties": {"norad_id": 31098, "name": "FENGYUN 1C DEB", "group": "fengyun-1c-debris", "lat": -42.97197108262797, "lon": -91.3311026074413, "alt_km": 721.1096265209017, "timestamp": "2025-12-05T11:32:56.299170+00:00", "meta": {"OBJECT_NAME": "FENGYUN 1C DEB", "OBJECT_ID": "1999-025BGU", "EPOCH": "2025-12-04T06:23:24.548640", "MEAN_MOTION": 14.51173345, "ECCENTRICITY": 0.0014151, "INCLINATION": 98.8706, "RA_OF_ASC_NODE": 95.7538, "ARG_OF_PERICENTER": 272.622, "MEAN_ANOMALY": 87.3353, "EPHEMERIS_TYPE": 0, "CLASSIFICATION_TYPE": "U", "NORAD_CAT_ID": 31098, "ELEMENT_SET_NO": 999, "REV_AT_EPOCH": 96834, "BSTAR": 0.0083652, "MEAN_MOTION_DOT": 0.00033365, "MEAN_MOTION_DDOT": 0}, "tle": {"line1": "1 31098U 99025BGU 25338.26625635  .00033365  00000+0  83652-2 0  9997", "line2": "2 31098  98.8706  95.7538 0014151 272.6220  87.3353 14.51173345968344"}}, "geometry": {"type": "Point", "coordinates": [-91.3311026074413, -42.97197108262797]}}, {"type": "Feature", "properties": {"norad_id": 31099, "name": "FENGYUN 1C DEB", "group": "fengyun-1c-debris", "lat": -56.65703529528924, "lon": -114.37113742898701, "alt_km": 760.6175451113322, "timestamp": "2025-12-05T11:32:56.299180+00:00", "meta": {"OBJECT_NAME": "FENGYUN 1C DEB", "OBJECT_ID": "1999-025BGV", "EPOCH": "2025-12-04T15:47:08.824128", "MEAN_MOTION": 14.27901878, "ECCENTRICITY": 0.0062914, "INCLINATION": 98.9375, "RA_OF_ASC_NODE": 230.9486, "ARG_OF_PERICENTER": 305.1809, "MEAN_ANOMALY": 86.5484, "EPHEMERIS_TYPE": 0, "CLASSIFICATION_TYPE": "U", "NORAD_CAT_ID": 31099, "ELEMENT_SET_NO": 999, "REV_AT_EPOCH": 97356, "BSTAR": 0.00059391, "MEAN_MOTION_DOT": 1.455e-05, "MEAN_MOTION_DDOT": 0}, "tle": {"line1": "1 31099U 99025BGV 25338.65774102  .00001455  00000+0  59391-3 0  9994", "line2": "2 31099  98.9375 230.9486 0062914 305.1809  86.5484 14.27901878973567"}}, "geometry": {"type": "Point", "coordinates": [-114.37113742898701, -56.65703529528924]}}, {"type": "Feature", "properties": {"norad_id": 31146, "name": "FENGYUN 1C DEB", "group": "fengyun-1c-debris", "lat": 12.958945568164227, "lon": 92.09039821407444, "alt_km": 658.2306047645952, "timestamp": "2025-12-05T11:32:56.299190+00:00", "meta": {"OBJECT_NAME": "FENGYUN 1C DEB", "OBJECT_ID": "1999-025BGY", "EPOCH": "2025-12-03T06:37:17.170752", "MEAN_MOTION": 14.27671465, "ECCENTRICITY": 0.0212195, "INCLINATION": 99.0403, "RA_OF_ASC_NODE": 267.7085, "ARG_OF_PERICENTER": 194.417, "MEAN_ANOMALY": 165.0896, "EPHEMERIS_TYPE": 0, "CLASSIFICATION_TYPE": "U", "NORAD_CAT_ID": 31146, "ELEMENT_SET_NO": 999, "REV_AT_EPOCH": 96630, "BSTAR": 0.00053234, "MEAN_MOTION_DOT": 1.615e-05, "MEAN_MOTION_DDOT": 0}, "tle": {"line1": "1 31146U 99025BGY 25337.27589318  .00001615  00000+0  53234-3 0  9995", "line2": "2 31146  99.0403 267.7085 0212195 194.4170 165.0896 14.27671465966305"}}, "geometry": {"type": "Point", "coordinates": [92.09039821407444, 12.958945568164227]}}, {"type": "Feature", "properties": {"norad_id": 31148, "name": "FENGYUN 1C DEB", "group": "fengyun-1c-debris", "lat": -70.52230771238963, "lon": -109.06109857307653, "alt_km": 833.7379891405762, "timestamp": "2025-12-05T11:32:56.299200+00:00", "meta": {"OBJECT_NAME": "FENGYUN 1C DEB", "OBJECT_ID": "1999-025BHA", "EPOCH": "2025-12-01T09:43:14.615328", "MEAN_MOTION": 14.43252139, "ECCENTRICITY": 0.01364315, "INCLINATION": 98.8662, "RA_OF_ASC_NODE": 220.5077, "ARG_OF_PERICENTER": 84.1951, "MEAN_ANOMALY": 277.4773, "EPHEMERIS_TYPE": 0, "CLASSIFICATION_TYPE": "U", "NORAD_CAT_ID": 31148, "ELEMENT_SET_NO": 999, "REV_AT_EPOCH": 97367, "BSTAR": 0.00092433394, "MEAN_MOTION_DOT": 3.432e-05, "MEAN_MOTION_DDOT": 0}, "tle": {"line1": "1 31148U 99025BHA 25335.40503027  .00003432  00000+0  92433-3 0  9996", "line2": "2 31148  98.8662 220.5077 0136431  84.1951 277.4773 14.43252139973670"}}, "geometry": {"type": "Point", "coordinates": [-109.06109857307653, -70.52230771238963]}}, {"type": "Feature", "properties": {"norad_id": 31150, "name": "FENGYUN 1C DEB", "group": "fengyun-1c-debris", "lat": 59.820532860476, "lon": -176.40262637587745, "alt_km": 839.0146555959109, "timestamp": "2025-12-05T11:32:56.299210+00:00", "meta": {"OBJECT_NAME": "FENGYUN 1C DEB", "OBJECT_ID": "1999-025BHC", "EPOCH": "2025-12-03T12:06:54.355392", "MEAN_MOTION": 14.1272462, "ECCENTRICITY": 0.00147988, "INCLINATION": 98.6861, "RA_OF_ASC_NODE": 346.4402, "ARG_OF_PERICENTER": 185.5315, "MEAN_ANOMALY": 327.5523, "EPHEMERIS_TYPE": 0, "CLASSIFICATION_TYPE": "U", "NORAD_CAT_ID": 31150, "ELEMENT_SET_NO": 999, "REV_AT_EPOCH": 96166, "BSTAR": 0.00022541937, "MEAN_MOTION_DOT": 3.76e-06, "MEAN_MOTION_DDOT": 0}, "tle": {"line1": "1 31150U 99025BHC 25337.50479578  .00000376  00000+0  22542-3 0  9993", "line2": "2 31150  98.6861 346.4402 0014798 185.5315 327.5523 14.12724620961664"}}, "geometry": {"type": "Point", "coordinates": [-176.40262637587745, 59.820532860476]}}]}